[{"OBJECT_NAME":"ONEWEB-0125","OBJECT_ID":"2020-100P","EPOCH":"2025-08-11T06:28:15.712320","MEAN_MOTION":13.12444639,"ECCENTRICITY":0.0001918,"INCLINATION":87.8858,"RA_OF_ASC_NODE":52.2481,"ARG_OF_PERICENTER":96.1667,"MEAN_ANOMALY":263.968,"EPHEMERIS_TYPE":0,"CLASSIFICATION_TYPE":"U","NORAD_CAT_ID":47271,"ELEMENT_SET_NO":999,"REV_AT_EPOCH":22398,"BSTAR":0.00031916,"MEAN_MOTION_DOT":1.28e-6,"MEAN_MOTION_DDOT":0},{"OBJECT_NAME":"ONEWEB-0126","OBJECT_ID":"2020-100Q","EPOCH":"2025-08-10T23:39:42.814944","MEAN_MOTION":13.12442944,"ECCENTRICITY":0.0001655,"INCLINATION":87.8866,"RA_OF_ASC_NODE":52.3233,"ARG_OF_PERICENTER":88.237,"MEAN_ANOMALY":271.8948,"EPHEMERIS_TYPE":0,"CLASSIFICATION_TYPE":"U","NORAD_CAT_ID":47272,"ELEMENT_SET_NO":999,"REV_AT_EPOCH":22401,"BSTAR":0.0010423,"MEAN_MOTION_DOT":3.88e-6,"MEAN_MOTION_DDOT":0},{"OBJECT_NAME":"ONEWEB-0127","OBJECT_ID":"2020-100R","EPOCH":"2025-08-11T06:09:33.892992","MEAN_MOTION":13.12442806,"ECCENTRICITY":0.0001629,"INCLINATION":87.8859,"RA_OF_ASC_NODE":52.2841,"ARG_OF_PERICENTER":85.9788,"MEAN_ANOMALY":274.1527,"EPHEMERIS_TYPE":0,"CLASSIFICATION_TYPE":"U","NORAD_CAT_ID":47273,"ELEMENT_SET_NO":999,"REV_AT_EPOCH":22407,"BSTAR":-0.0014242,"MEAN_MOTION_DOT":-5.0e-6,"MEAN_MOTION_DDOT":0},{"OBJECT_NAME":"ONEWEB-0128","OBJECT_ID":"2020-100S","EPOCH":"2025-08-10T23:23:09.466368","MEAN_MOTION":13.12443456,"ECCENTRICITY":0.0001816,"INCLINATION":87.8853,"RA_OF_ASC_NODE":52.3665,"ARG_OF_PERICENTER":80.6012,"MEAN_ANOMALY":279.5322,"EPHEMERIS_TYPE":0,"CLASSIFICATION_TYPE":"U","NORAD_CAT_ID":47274,"ELEMENT_SET_NO":999,"REV_AT_EPOCH":22405,"BSTAR":0.0012767,"MEAN_MOTION_DOT":4.72e-6,"MEAN_MOTION_DDOT":0},{"OBJECT_NAME":"ONEWEB-0129","OBJECT_ID":"2020-100T","EPOCH":"2025-08-11T06:11:54.386304","MEAN_MOTION":13.12444212,"ECCENTRICITY":5.92e-5,"INCLINATION":87.8858,"RA_OF_ASC_NODE":52.2529,"ARG_OF_PERICENTER":76.45,"MEAN_ANOMALY":283.6694,"EPHEMERIS_TYPE":0,"CLASSIFICATION_TYPE":"U","NORAD_CAT_ID":47275,"ELEMENT_SET_NO":999,"REV_AT_EPOCH":22402,"BSTAR":-0.00068288,"MEAN_MOTION_DOT":-2.33e-6,"MEAN_MOTION_DDOT":0},{"OBJECT_NAME":"ONEWEB-0130","OBJECT_ID":"2020-100U","EPOCH":"2025-08-10T23:32:30.259392","MEAN_MOTION":13.12440933,"ECCENTRICITY":0.0001741,"INCLINATION":87.8845,"RA_OF_ASC_NODE":52.3068,"ARG_OF_PERICENTER":84.8091,"MEAN_ANOMALY":275.3236,"EPHEMERIS_TYPE":0,"CLASSIFICATION_TYPE":"U","NORAD_CAT_ID":47276,"ELEMENT_SET_NO":999,"REV_AT_EPOCH":22395,"BSTAR":0.0011396,"MEAN_MOTION_DOT":4.23e-6,"MEAN_MOTION_DDOT":0},{"OBJECT_NAME":"ONEWEB-0131","OBJECT_ID":"2020-100V","EPOCH":"2025-08-10T23:27:50.550624","MEAN_MOTION":13.12442845,"ECCENTRICITY":0.0001823,"INCLINATION":87.8858,"RA_OF_ASC_NODE":52.3354,"ARG_OF_PERICENTER":85.3199,"MEAN_ANOMALY":274.8137,"EPHEMERIS_TYPE":0,"CLASSIFICATION_TYPE":"U","NORAD_CAT_ID":47277,"ELEMENT_SET_NO":999,"REV_AT_EPOCH":22399,"BSTAR":0.0012252,"MEAN_MOTION_DOT":4.54e-6,"MEAN_MOTION_DDOT":0},{"OBJECT_NAME":"ONEWEB-0132","OBJECT_ID":"2020-100W","EPOCH":"2025-08-11T05:39:12.588768","MEAN_MOTION":13.12440883,"ECCENTRICITY":0.000196,"INCLINATION":87.8855,"RA_OF_ASC_NODE":52.286,"ARG_OF_PERICENTER":89.5802,"MEAN_ANOMALY":270.5551,"EPHEMERIS_TYPE":0,"CLASSIFICATION_TYPE":"U","NORAD_CAT_ID":47278,"ELEMENT_SET_NO":999,"REV_AT_EPOCH":22392,"BSTAR":-0.00072972,"MEAN_MOTION_DOT":-2.5e-6,"MEAN_MOTION_DDOT":0},{"OBJECT_NAME":"ONEWEB-0133","OBJECT_ID":"2020-100X","EPOCH":"2025-08-10T22:43:13.884672","MEAN_MOTION":13.12442869,"ECCENTRICITY":0.000188,"INCLINATION":87.8846,"RA_OF_ASC_NODE":52.3176,"ARG_OF_PERICENTER":84.4719,"MEAN_ANOMALY":275.6624,"EPHEMERIS_TYPE":0,"CLASSIFICATION_TYPE":"U","NORAD_CAT_ID":47279,"ELEMENT_SET_NO":999,"REV_AT_EPOCH":22404,"BSTAR":-0.0014942,"MEAN_MOTION_DOT":-5.25e-6,"MEAN_MOTION_DDOT":0},{"OBJECT_NAME":"ONEWEB-0134","OBJECT_ID":"2020-100Y","EPOCH":"2025-08-11T05:18:11.763072","MEAN_MOTION":13.12441049,"ECCENTRICITY":0.0001668,"INCLINATION":87.8848,"RA_OF_ASC_NODE":52.2466,"ARG_OF_PERICENTER":79.5695,"MEAN_ANOMALY":280.5621,"EPHEMERIS_TYPE":0,"CLASSIFICATION_TYPE":"U","NORAD_CAT_ID":47280,"ELEMENT_SET_NO":999,"REV_AT_EPOCH":22405,"BSTAR":0.00058173,"MEAN_MOTION_DOT":2.22e-6,"MEAN_MOTION_DDOT":0},{"OBJECT_NAME":"ONEWEB-0135","OBJECT_ID":"2020-100Z","EPOCH":"2025-08-11T06:25:55.964640","MEAN_MOTION":13.12444607,"ECCENTRICITY":0.0001809,"INCLINATION":87.8858,"RA_OF_ASC_NODE":52.2767,"ARG_OF_PERICENTER":74.0238,"MEAN_ANOMALY":286.1089,"EPHEMERIS_TYPE":0,"CLASSIFICATION_TYPE":"U","NORAD_CAT_ID":47281,"ELEMENT_SET_NO":999,"REV_AT_EPOCH":22408,"BSTAR":0.00017289,"MEAN_MOTION_DOT":7.5e-7,"MEAN_MOTION_DDOT":0},{"OBJECT_NAME":"ONEWEB-0136","OBJECT_ID":"2020-100AA","EPOCH":"2025-08-10T23:34:50.395008","MEAN_MOTION":13.12442198,"ECCENTRICITY":0.0001553,"INCLINATION":87.8858,"RA_OF_ASC_NODE":52.3019,"ARG_OF_PERICENTER":73.9643,"MEAN_ANOMALY":286.1657,"EPHEMERIS_TYPE":0,"CLASSIFICATION_TYPE":"U","NORAD_CAT_ID":47282,"ELEMENT_SET_NO":999,"REV_AT_EPOCH":22397,"BSTAR":0.0011402,"MEAN_MOTION_DOT":4.23e-6,"MEAN_MOTION_DDOT":0},{"OBJECT_NAME":"ONEWEB-0137","OBJECT_ID":"2020-100AB","EPOCH":"2025-08-11T05:53:13.247808","MEAN_MOTION":13.12441907,"ECCENTRICITY":0.0001687,"INCLINATION":87.8856,"RA_OF_ASC_NODE":52.2558,"ARG_OF_PERICENTER":94.1275,"MEAN_ANOMALY":266.0047,"EPHEMERIS_TYPE":0,"CLASSIFICATION_TYPE":"U","NORAD_CAT_ID":47283,"ELEMENT_SET_NO":999,"REV_AT_EPOCH":22391,"BSTAR":-0.0017519,"MEAN_MOTION_DOT":-6.17e-6,"MEAN_MOTION_DDOT":0},{"OBJECT_NAME":"ONEWEB-0138","OBJECT_ID":"2020-100AC","EPOCH":"2025-08-11T05:22:51.807072","MEAN_MOTION":13.1244231,"ECCENTRICITY":0.0001679,"INCLINATION":87.8853,"RA_OF_ASC_NODE":52.2699,"ARG_OF_PERICENTER":85.8585,"MEAN_ANOMALY":274.2735,"EPHEMERIS_TYPE":0,"CLASSIFICATION_TYPE":"U","NORAD_CAT_ID":47284,"ELEMENT_SET_NO":999,"REV_AT_EPOCH":22399,"BSTAR":0.00037076,"MEAN_MOTION_DOT":1.46e-6,"MEAN_MOTION_DDOT":0},{"OBJECT_NAME":"ONEWEB-0139","OBJECT_ID":"2020-100AD","EPOCH":"2025-08-11T06:19:08.364000","MEAN_MOTION":13.1244338,"ECCENTRICITY":0.0001754,"INCLINATION":87.8851,"RA_OF_ASC_NODE":52.2553,"ARG_OF_PERICENTER":88.6693,"MEAN_ANOMALY":271.4637,"EPHEMERIS_TYPE":0,"CLASSIFICATION_TYPE":"U","NORAD_CAT_ID":47285,"ELEMENT_SET_NO":999,"REV_AT_EPOCH":22407,"BSTAR":-0.0002753,"MEAN_MOTION_DOT":-8.6e-7,"MEAN_MOTION_DDOT":0},{"OBJECT_NAME":"ONEWEB-0140","OBJECT_ID":"2020-100AE","EPOCH":"2025-08-10T21:54:23.903424","MEAN_MOTION":13.12441769,"ECCENTRICITY":0.0001697,"INCLINATION":87.885,"RA_OF_ASC_NODE":52.309,"ARG_OF_PERICENTER":84.6879,"MEAN_ANOMALY":275.4443,"EPHEMERIS_TYPE":0,"CLASSIFICATION_TYPE":"U","NORAD_CAT_ID":47286,"ELEMENT_SET_NO":999,"REV_AT_EPOCH":22399,"BSTAR":0.00072399,"MEAN_MOTION_DOT":2.73e-6,"MEAN_MOTION_DDOT":0},{"OBJECT_NAME":"ONEWEB-0141","OBJECT_ID":"2020-100AF","EPOCH":"2025-08-11T06:18:44.054496","MEAN_MOTION":13.12444332,"ECCENTRICITY":0.000164,"INCLINATION":87.8844,"RA_OF_ASC_NODE":52.2561,"ARG_OF_PERICENTER":98.7873,"MEAN_ANOMALY":261.3442,"EPHEMERIS_TYPE":0,"CLASSIFICATION_TYPE":"U","NORAD_CAT_ID":47287,"ELEMENT_SET_NO":999,"REV_AT_EPOCH":22402,"BSTAR":-0.00035325,"MEAN_MOTION_DOT":-1.14e-6,"MEAN_MOTION_DDOT":0}]
