ONEWEB-0125             
1 47271U 20100P   25223.26962630  .00000128  00000+0  31916-3 0  9995
2 47271  87.8858  52.2481 0001918  96.1667 263.9680 13.12444639223988
ONEWEB-0126             
1 47272U 20100Q   25222.98591221  .00000388  00000+0  10423-2 0  9995
2 47272  87.8866  52.3233 0001655  88.2370 271.8948 13.12442944224012
ONEWEB-0127             
1 47273U 20100R   25223.25664228 -.00000500  00000+0 -14242-2 0  9996
2 47273  87.8859  52.2841 0001629  85.9788 274.1527 13.12442806224079
ONEWEB-0128             
1 47274U 20100S   25222.97441512  .00000472  00000+0  12767-2 0  9990
2 47274  87.8853  52.3665 0001816  80.6012 279.5322 13.12443456224051
ONEWEB-0129             
1 47275U 20100T   25223.25826836 -.00000233  00000+0 -68288-3 0  9996
2 47275  87.8858  52.2529 0000592  76.4500 283.6694 13.12444212224026
ONEWEB-0130             
1 47276U 20100U   25222.98090578  .00000423  00000+0  11396-2 0  9998
2 47276  87.8845  52.3068 0001741  84.8091 275.3236 13.12440933223954
ONEWEB-0131             
1 47277U 20100V   25222.97766841  .00000454  00000+0  12252-2 0  9997
2 47277  87.8858  52.3354 0001823  85.3199 274.8137 13.12442845223995
ONEWEB-0132             
1 47278U 20100W   25223.23556237 -.00000250  00000+0 -72972-3 0  9996
2 47278  87.8855  52.2860 0001960  89.5802 270.5551 13.12440883223929
ONEWEB-0133             
1 47279U 20100X   25222.94668848 -.00000525  00000+0 -14942-2 0  9993
2 47279  87.8846  52.3176 0001880  84.4719 275.6624 13.12442869224040
ONEWEB-0134             
1 47280U 20100Y   25223.22096948  .00000222  00000+0  58173-3 0  9990
2 47280  87.8848  52.2466 0001668  79.5695 280.5621 13.12441049224059
ONEWEB-0135             
1 47281U 20100Z   25223.26800885  .00000075  00000+0  17289-3 0  9997
2 47281  87.8858  52.2767 0001809  74.0238 286.1089 13.12444607224081
ONEWEB-0136             
1 47282U 20100AA  25222.98252772  .00000423  00000+0  11402-2 0  9999
2 47282  87.8858  52.3019 0001553  73.9643 286.1657 13.12442198223978
ONEWEB-0137             
1 47283U 20100AB  25223.24529222 -.00000617  00000+0 -17519-2 0  9999
2 47283  87.8856  52.2558 0001687  94.1275 266.0047 13.12441907223919
ONEWEB-0138             
1 47284U 20100AC  25223.22421073  .00000146  00000+0  37076-3 0  9999
2 47284  87.8853  52.2699 0001679  85.8585 274.2735 13.12442310223997
ONEWEB-0139             
1 47285U 20100AD  25223.26329125 -.00000086  00000+0 -27530-3 0  9998
2 47285  87.8851  52.2553 0001754  88.6693 271.4637 13.12443380224078
ONEWEB-0140             
1 47286U 20100AE  25222.91277666  .00000273  00000+0  72399-3 0  9991
2 47286  87.8850  52.3090 0001697  84.6879 275.4443 13.12441769223991
ONEWEB-0141             
1 47287U 20100AF  25223.26300989 -.00000114  00000+0 -35325-3 0  9990
2 47287  87.8844  52.2561 0001640  98.7873 261.3442 13.12444332224022
